STARLINK-2185
1 27767C 21017AX  21325.13772611  .00007221  00000-0  48388-3 0  3252
2 27767  53.0559  57.6120 0001312  83.7522 327.3376 15.06385844    11
